{
  "type": "FeatureCollection",
  "features": [
    {
      "type": "Feature",
      "properties": {
        "norad_id": 30893,
        "name": "FENGYUN 1C DEB",
        "group": "fengyun-1c-debris",
        "lat": 78.15744118259684,
        "lon": -16.858813537810367,
        "alt_km": 708.7564549719264,
        "timestamp": "2025-12-27T07:26:25.501158+00:00",
        "meta_object_name": "FENGYUN 1C DEB",
        "meta_object_id": "1999-025AYF",
        "meta_epoch": "2025-12-24T21:04:37.253280",
        "meta_mean_motion": 13.94098016,
        "meta_eccentricity": 0.0309071,
        "meta_inclination": 98.2549,
        "meta_ra_of_asc_node": 24.7778,
        "meta_arg_of_pericenter": 59.0037,
        "meta_mean_anomaly": 62.9275,
        "meta_ephemeris_type": 0,
        "meta_classification_type": "U",
        "meta_norad_cat_id": 30893,
        "meta_element_set_no": 999,
        "meta_rev_at_epoch": 95054,
        "meta_bstar": 0.00083697,
        "meta_mean_motion_dot": 1.612e-05,
        "meta_mean_motion_ddot": 0,
        "tle_line1": "1 30893U 99025AYF 25358.87820895  .00001612  00000+0  83697-3 0  9993",
        "tle_line2": "2 30893  98.2549  24.7778 0309071  59.0037  62.9275 13.94098016950546"
      },
      "geometry": {
        "type": "Point",
        "coordinates": [
          -16.858813537810367,
          78.15744118259684
        ]
      }
    },
    {
      "type": "Feature",
      "properties": {
        "norad_id": 30895,
        "name": "FENGYUN 1C DEB",
        "group": "fengyun-1c-debris",
        "lat": 40.3845012230232,
        "lon": -102.6320567775276,
        "alt_km": 696.8777165804067,
        "timestamp": "2025-12-27T07:26:25.501168+00:00",
        "meta_object_name": "FENGYUN 1C DEB",
        "meta_object_id": "1999-025AYH",
        "meta_epoch": "2025-12-26T16:24:04.466592",
        "meta_mean_motion": 14.31577127,
        "meta_eccentricity": 0.02181265,
        "meta_inclination": 98.7174,
        "meta_ra_of_asc_node": 69.2394,
        "meta_arg_of_pericenter": 83.2964,
        "meta_mean_anomaly": 65.9511,
        "meta_ephemeris_type": 0,
        "meta_classification_type": "U",
        "meta_norad_cat_id": 30895,
        "meta_element_set_no": 999,
        "meta_rev_at_epoch": 97992,
        "meta_bstar": 0.00029361885,
        "meta_mean_motion_dot": 9.65e-06,
        "meta_mean_motion_ddot": 0,
        "tle_line1": "1 30895U 99025AYH 25360.68338503  .00000965  00000+0  29362-3 0  9996",
        "tle_line2": "2 30895  98.7174  69.2394 0218126  83.2964  65.9511 14.31577127979929"
      },
      "geometry": {
        "type": "Point",
        "coordinates": [
          -102.6320567775276,
          40.3845012230232
        ]
      }
    },
    {
      "type": "Feature",
      "properties": {
        "norad_id": 30898,
        "name": "FENGYUN 1C DEB",
        "group": "fengyun-1c-debris",
        "lat": 45.42778609879357,
        "lon": -93.59713791119968,
        "alt_km": 462.1286799396885,
        "timestamp": "2025-12-27T07:26:25.501178+00:00",
        "meta_object_name": "FENGYUN 1C DEB",
        "meta_object_id": "1999-025AYL",
        "meta_epoch": "2025-12-25T00:05:27.139776",
        "meta_mean_motion": 15.23871046,
        "meta_eccentricity": 0.00415773,
        "meta_inclination": 99.0256,
        "meta_ra_of_asc_node": 272.9152,
        "meta_arg_of_pericenter": 73.1873,
        "meta_mean_anomaly": 287.3914,
        "meta_ephemeris_type": 0,
        "meta_classification_type": "U",
        "meta_norad_cat_id": 30898,
        "meta_element_set_no": 999,
        "meta_rev_at_epoch": 66558,
        "meta_bstar": 0.0036665107,
        "meta_mean_motion_dot": 0.00091568,
        "meta_mean_motion_ddot": 0,
        "tle_line1": "1 30898U 99025AYL 25359.00378634  .00091568  00000+0  36665-2 0  9994",
        "tle_line2": "2 30898  99.0256 272.9152 0041577  73.1873 287.3914 15.23871046665583"
      },
      "geometry": {
        "type": "Point",
        "coordinates": [
          -93.59713791119968,
          45.42778609879357
        ]
      }
    },
    {
      "type": "Feature",
      "properties": {
        "norad_id": 30899,
        "name": "FENGYUN 1C DEB",
        "group": "fengyun-1c-debris",
        "lat": -44.266846882396564,
        "lon": -91.24262916395999,
        "alt_km": 777.2269956002674,
        "timestamp": "2025-12-27T07:26:25.501188+00:00",
        "meta_object_name": "FENGYUN 1C DEB",
        "meta_object_id": "1999-025AYM",
        "meta_epoch": "2025-12-25T12:41:08.078208",
        "meta_mean_motion": 14.33767723,
        "meta_eccentricity": 0.0030467,
        "meta_inclination": 99.1766,
        "meta_ra_of_asc_node": 257.8035,
        "meta_arg_of_pericenter": 253.0754,
        "meta_mean_anomaly": 231.7257,
        "meta_ephemeris_type": 0,
        "meta_classification_type": "U",
        "meta_norad_cat_id": 30899,
        "meta_element_set_no": 999,
        "meta_rev_at_epoch": 96838,
        "meta_bstar": 0.002155,
        "meta_mean_motion_dot": 5.975e-05,
        "meta_mean_motion_ddot": 0,
        "tle_line1": "1 30899U 99025AYM 25359.52856572  .00005975  00000+0  21550-2 0  9998",
        "tle_line2": "2 30899  99.1766 257.8035 0030467 253.0754 231.7257 14.33767723968389"
      },
      "geometry": {
        "type": "Point",
        "coordinates": [
          -91.24262916395999,
          -44.266846882396564
        ]
      }
    },
    {
      "type": "Feature",
      "properties": {
        "norad_id": 30903,
        "name": "FENGYUN 1C DEB",
        "group": "fengyun-1c-debris",
        "lat": -7.534710855000026,
        "lon": -111.53513234128441,
        "alt_km": 871.7092614477433,
        "timestamp": "2025-12-27T07:26:25.501198+00:00",
        "meta_object_name": "FENGYUN 1C DEB",
        "meta_object_id": "1999-025AYR",
        "meta_epoch": "2025-12-23T22:43:24.937824",
        "meta_mean_motion": 13.97601805,
        "meta_eccentricity": 0.0096602,
        "meta_inclination": 99.3704,
        "meta_ra_of_asc_node": 243.7838,
        "meta_arg_of_pericenter": 63.0235,
        "meta_mean_anomaly": 298.0753,
        "meta_ephemeris_type": 0,
        "meta_classification_type": "U",
        "meta_norad_cat_id": 30903,
        "meta_element_set_no": 999,
        "meta_rev_at_epoch": 68861,
        "meta_bstar": 1.9133e-05,
        "meta_mean_motion_dot": -1.8e-07,
        "meta_mean_motion_ddot": 0,
        "tle_line1": "1 30903U 99025AYR 25357.94681641 -.00000018  00000+0  19133-4 0  9991",
        "tle_line2": "2 30903  99.3704 243.7838 0096602  63.0235 298.0753 13.97601805688619"
      },
      "geometry": {
        "type": "Point",
        "coordinates": [
          -111.53513234128441,
          -7.534710855000026
        ]
      }
    },
    {
      "type": "Feature",
      "properties": {
        "norad_id": 30905,
        "name": "FENGYUN 1C DEB",
        "group": "fengyun-1c-debris",
        "lat": -32.8455417994862,
        "lon": 82.5176259775695,
        "alt_km": 826.1595635221947,
        "timestamp": "2025-12-27T07:26:25.501208+00:00",
        "meta_object_name": "FENGYUN 1C DEB",
        "meta_object_id": "1999-025AYT",
        "meta_epoch": "2025-12-26T11:16:23.555712",
        "meta_mean_motion": 14.17902323,
        "meta_eccentricity": 0.005612,
        "meta_inclination": 98.8879,
        "meta_ra_of_asc_node": 75.8789,
        "meta_arg_of_pericenter": 41.7446,
        "meta_mean_anomaly": 318.799,
        "meta_ephemeris_type": 0,
        "meta_classification_type": "U",
        "meta_norad_cat_id": 30905,
        "meta_element_set_no": 999,
        "meta_rev_at_epoch": 96317,
        "meta_bstar": 0.0011533,
        "meta_mean_motion_dot": 2.35e-05,
        "meta_mean_motion_ddot": 0,
        "tle_line1": "1 30905U 99025AYT 25360.46971708  .00002350  00000+0  11533-2 0  9994",
        "tle_line2": "2 30905  98.8879  75.8789 0056120  41.7446 318.7990 14.17902323963177"
      },
      "geometry": {
        "type": "Point",
        "coordinates": [
          82.5176259775695,
          -32.8455417994862
        ]
      }
    },
    {
      "type": "Feature",
      "properties": {
        "norad_id": 30907,
        "name": "FENGYUN 1C DEB",
        "group": "fengyun-1c-debris",
        "lat": 39.84552039102345,
        "lon": -148.53970138145377,
        "alt_km": 807.778897756024,
        "timestamp": "2025-12-27T07:26:25.501218+00:00",
        "meta_object_name": "FENGYUN 1C DEB",
        "meta_object_id": "1999-025AYV",
        "meta_epoch": "2025-12-24T21:05:44.215008",
        "meta_mean_motion": 14.15129204,
        "meta_eccentricity": 0.0056279,
        "meta_inclination": 99.9513,
        "meta_ra_of_asc_node": 20.3271,
        "meta_arg_of_pericenter": 105.266,
        "meta_mean_anomaly": 255.474,
        "meta_ephemeris_type": 0,
        "meta_classification_type": "U",
        "meta_norad_cat_id": 30907,
        "meta_element_set_no": 999,
        "meta_rev_at_epoch": 1721,
        "meta_bstar": 0.00089271,
        "meta_mean_motion_dot": 1.706e-05,
        "meta_mean_motion_ddot": 0,
        "tle_line1": "1 30907U 99025AYV 25358.87898397  .00001706  00000+0  89271-3 0  9999",
        "tle_line2": "2 30907  99.9513  20.3271 0056279 105.2660 255.4740 14.15129204 17218"
      },
      "geometry": {
        "type": "Point",
        "coordinates": [
          -148.53970138145377,
          39.84552039102345
        ]
      }
    }
  ]
}